{
  "norad_id": 60307,
  "name": "STARLINK-11223 [DTC]",
  "history": [
    {
      "epoch": "2026-03-28T07:49:56.316864Z",
      "apogee_km": 360.51362210570096,
      "perigee_km": 358.7366047259093,
      "latitude_deg": -3.6176295348767396e-05,
      "longitude_deg": 110.93632219229012,
      "height_km": 360.90690494257655,
      "semi_major_axis_km": 6737.762113415805,
      "eccentricity": 0.00013187,
      "inclination_deg": 53.1573,
      "raan_deg": 54.1694,
      "arg_perigee_deg": 114.5066,
      "mean_anomaly_deg": 245.6089,
      "mean_motion_rev_day": 15.69745518
    },
    {
      "epoch": "2026-03-29T03:41:49.619328Z",
      "apogee_km": 360.536640014132,
      "perigee_km": 358.92494203851766,
      "latitude_deg": 1.773822056754241e-05,
      "longitude_deg": 168.0691499737677,
      "height_km": 360.8632403242653,
      "semi_major_axis_km": 6737.867791026324,
      "eccentricity": 0.0001196,
      "inclination_deg": 53.1573,
      "raan_deg": 50.0901,
      "arg_perigee_deg": 105.7812,
      "mean_anomaly_deg": 254.3338,
      "mean_motion_rev_day": 15.69708588
    },
    {
      "epoch": "2026-03-30T04:08:46.381920Z",
      "apogee_km": 360.5644628336049,
      "perigee_km": 359.0174345765827,
      "latitude_deg": -2.1186342895414154e-05,
      "longitude_deg": 155.30552191509443,
      "height_km": 360.5379490652784,
      "semi_major_axis_km": 6737.9279487050935,
      "eccentricity": 0.0001148,
      "inclination_deg": 53.1582,
      "raan_deg": 45.0671,
      "arg_perigee_deg": 77.575,
      "mean_anomaly_deg": 282.5396,
      "mean_motion_rev_day": 15.69687566
    },
    {
      "epoch": "2026-03-31T19:52:33.868128Z",
      "apogee_km": 360.6283412719431,
      "perigee_km": 358.83606806350144,
      "latitude_deg": -2.5648154194596262e-05,
      "longitude_deg": -90.4343857502539,
      "height_km": 360.3794460436846,
      "semi_major_axis_km": 6737.869204667722,
      "eccentricity": 0.000133,
      "inclination_deg": 53.159,
      "raan_deg": 36.9067,
      "arg_perigee_deg": 72.727,
      "mean_anomaly_deg": 287.3893,
      "mean_motion_rev_day": 15.69708094
    }
  ]
}